{
  "type": "FeatureCollection",
  "features": [
    {
      "type": "Feature",
      "properties": {
        "norad_id": 38724,
        "name": "FENGYUN 1C DEB",
        "group": "fengyun-1c-debris",
        "lat": -62.73233537511504,
        "lon": 158.01005762715118,
        "alt_km": 937.3032505206256,
        "timestamp": "2025-12-12T09:49:09.021804+00:00",
        "meta_object_name": "FENGYUN 1C DEB",
        "meta_object_id": "1999-025ETR",
        "meta_epoch": "2025-11-13T12:10:01.066656",
        "meta_mean_motion": 14.14277973,
        "meta_eccentricity": 0.012547,
        "meta_inclination": 98.7406,
        "meta_ra_of_asc_node": 327.0705,
        "meta_arg_of_pericenter": 154.7752,
        "meta_mean_anomaly": 205.962,
        "meta_ephemeris_type": 0,
        "meta_classification_type": "U",
        "meta_norad_cat_id": 38724,
        "meta_element_set_no": 999,
        "meta_rev_at_epoch": 56211,
        "meta_bstar": 0.0084973,
        "meta_mean_motion_dot": 0.00017498,
        "meta_mean_motion_ddot": 0,
        "tle_line1": "1 38724U 99025ETR 25317.50695679  .00017498  00000+0  84973-2 0  9995",
        "tle_line2": "2 38724  98.7406 327.0705 0125470 154.7752 205.9620 14.14277973562118"
      },
      "geometry": {
        "type": "Point",
        "coordinates": [
          158.01005762715118,
          -62.73233537511504
        ]
      }
    },
    {
      "type": "Feature",
      "properties": {
        "norad_id": 38725,
        "name": "FENGYUN 1C DEB",
        "group": "fengyun-1c-debris",
        "lat": 26.792128031262678,
        "lon": -63.855654832063195,
        "alt_km": 754.3941498852373,
        "timestamp": "2025-12-12T09:49:09.021814+00:00",
        "meta_object_name": "FENGYUN 1C DEB",
        "meta_object_id": "1999-025ETS",
        "meta_epoch": "2025-12-10T13:50:08.556288",
        "meta_mean_motion": 14.42766759,
        "meta_eccentricity": 0.0034699,
        "meta_inclination": 98.871,
        "meta_ra_of_asc_node": 109.715,
        "meta_arg_of_pericenter": 263.0773,
        "meta_mean_anomaly": 96.6468,
        "meta_ephemeris_type": 0,
        "meta_classification_type": "U",
        "meta_norad_cat_id": 38725,
        "meta_element_set_no": 999,
        "meta_rev_at_epoch": 73321,
        "meta_bstar": 0.0046037,
        "meta_mean_motion_dot": 0.0001544,
        "meta_mean_motion_ddot": 0,
        "tle_line1": "1 38725U 99025ETS 25344.57648792  .00015440  00000+0  46037-2 0  9991",
        "tle_line2": "2 38725  98.8710 109.7150 0034699 263.0773  96.6468 14.42766759733218"
      },
      "geometry": {
        "type": "Point",
        "coordinates": [
          -63.855654832063195,
          26.792128031262678
        ]
      }
    },
    {
      "type": "Feature",
      "properties": {
        "norad_id": 38726,
        "name": "FENGYUN 1C DEB",
        "group": "fengyun-1c-debris",
        "lat": 48.24661857305995,
        "lon": 0.024841424321143193,
        "alt_km": 548.9068059846186,
        "timestamp": "2025-12-12T09:49:09.021825+00:00",
        "meta_object_name": "FENGYUN 1C DEB",
        "meta_object_id": "1999-025ETT",
        "meta_epoch": "2025-12-11T08:02:13.814304",
        "meta_mean_motion": 15.02811105,
        "meta_eccentricity": 0.00235515,
        "meta_inclination": 99.1369,
        "meta_ra_of_asc_node": 9.1467,
        "meta_arg_of_pericenter": 129.1627,
        "meta_mean_anomaly": 231.1691,
        "meta_ephemeris_type": 0,
        "meta_classification_type": "U",
        "meta_norad_cat_id": 38726,
        "meta_element_set_no": 999,
        "meta_rev_at_epoch": 69834,
        "meta_bstar": 0.013324693,
        "meta_mean_motion_dot": 0.00183926,
        "meta_mean_motion_ddot": 0,
        "tle_line1": "1 38726U 99025ETT 25345.33488211  .00183926  00000+0  13325-1 0  9993",
        "tle_line2": "2 38726  99.1369   9.1467 0023551 129.1627 231.1691 15.02811105698343"
      },
      "geometry": {
        "type": "Point",
        "coordinates": [
          0.024841424321143193,
          48.24661857305995
        ]
      }
    },
    {
      "type": "Feature",
      "properties": {
        "norad_id": 38728,
        "name": "FENGYUN 1C DEB",
        "group": "fengyun-1c-debris",
        "lat": 4.52374285616069,
        "lon": -27.0335875278894,
        "alt_km": 627.7014376145517,
        "timestamp": "2025-12-12T09:49:09.021836+00:00",
        "meta_object_name": "FENGYUN 1C DEB",
        "meta_object_id": "1999-025ETV",
        "meta_epoch": "2025-12-06T05:29:30.081696",
        "meta_mean_motion": 14.70418681,
        "meta_eccentricity": 0.0075523,
        "meta_inclination": 99.2588,
        "meta_ra_of_asc_node": 326.6948,
        "meta_arg_of_pericenter": 74.331,
        "meta_mean_anomaly": 352.8104,
        "meta_ephemeris_type": 0,
        "meta_classification_type": "U",
        "meta_norad_cat_id": 38728,
        "meta_element_set_no": 999,
        "meta_rev_at_epoch": 65515,
        "meta_bstar": 0.0019460135,
        "meta_mean_motion_dot": 0.00012268,
        "meta_mean_motion_ddot": 0,
        "tle_line1": "1 38728U 99025ETV 25340.22882039  .00012268  00000+0  19460-2 0  9991",
        "tle_line2": "2 38728  99.2588 326.6948 0075523  74.3310 352.8104 14.70418681655154"
      },
      "geometry": {
        "type": "Point",
        "coordinates": [
          -27.0335875278894,
          4.52374285616069
        ]
      }
    },
    {
      "type": "Feature",
      "properties": {
        "norad_id": 38789,
        "name": "FENGYUN 1C DEB",
        "group": "fengyun-1c-debris",
        "lat": -23.273778803296725,
        "lon": -123.68443790699916,
        "alt_km": 647.3392086472786,
        "timestamp": "2025-12-12T09:49:09.021846+00:00",
        "meta_object_name": "FENGYUN 1C DEB",
        "meta_object_id": "1999-025EUD",
        "meta_epoch": "2025-12-09T22:24:51.255648",
        "meta_mean_motion": 14.45777362,
        "meta_eccentricity": 0.02079599,
        "meta_inclination": 98.8559,
        "meta_ra_of_asc_node": 229.8858,
        "meta_arg_of_pericenter": 33.6569,
        "meta_mean_anomaly": 29.055,
        "meta_ephemeris_type": 0,
        "meta_classification_type": "U",
        "meta_norad_cat_id": 38789,
        "meta_element_set_no": 999,
        "meta_rev_at_epoch": 61805,
        "meta_bstar": 0.00090846035,
        "meta_mean_motion_dot": 4.156e-05,
        "meta_mean_motion_ddot": 0,
        "tle_line1": "1 38789U 99025EUD 25343.93392657  .00004156  00000+0  90846-3 0  9996",
        "tle_line2": "2 38789  98.8559 229.8858 0207959  33.6569  29.0550 14.45777362618054"
      },
      "geometry": {
        "type": "Point",
        "coordinates": [
          -123.68443790699916,
          -23.273778803296725
        ]
      }
    },
    {
      "type": "Feature",
      "properties": {
        "norad_id": 38795,
        "name": "FENGYUN 1C DEB",
        "group": "fengyun-1c-debris",
        "lat": -62.519877602345964,
        "lon": 172.28780613954453,
        "alt_km": 784.7960712621607,
        "timestamp": "2025-12-12T09:49:09.021856+00:00",
        "meta_object_name": "FENGYUN 1C DEB",
        "meta_object_id": "1999-025EUK",
        "meta_epoch": "2025-12-09T08:20:16.870272",
        "meta_mean_motion": 13.29873446,
        "meta_eccentricity": 0.05024228,
        "meta_inclination": 98.6999,
        "meta_ra_of_asc_node": 6.8116,
        "meta_arg_of_pericenter": 264.2547,
        "meta_mean_anomaly": 90.1112,
        "meta_ephemeris_type": 0,
        "meta_classification_type": "U",
        "meta_norad_cat_id": 38795,
        "meta_element_set_no": 999,
        "meta_rev_at_epoch": 78467,
        "meta_bstar": 0.005100856,
        "meta_mean_motion_dot": 4.746e-05,
        "meta_mean_motion_ddot": 0,
        "tle_line1": "1 38795U 99025EUK 25343.34741748  .00004746  00000+0  51009-2 0  9999",
        "tle_line2": "2 38795  98.6999   6.8116 0502422 264.2547  90.1112 13.29873446784674"
      },
      "geometry": {
        "type": "Point",
        "coordinates": [
          172.28780613954453,
          -62.519877602345964
        ]
      }
    },
    {
      "type": "Feature",
      "properties": {
        "norad_id": 38797,
        "name": "FENGYUN 1C DEB",
        "group": "fengyun-1c-debris",
        "lat": 22.599698259361944,
        "lon": -124.71986116558452,
        "alt_km": 1200.2688557881293,
        "timestamp": "2025-12-12T09:49:09.021867+00:00",
        "meta_object_name": "FENGYUN 1C DEB",
        "meta_object_id": "1999-025EUM",
        "meta_epoch": "2025-12-11T10:46:32.675520",
        "meta_mean_motion": 13.61609837,
        "meta_eccentricity": 0.02449104,
        "meta_inclination": 99.4842,
        "meta_ra_of_asc_node": 238.3367,
        "meta_arg_of_pericenter": 224.6313,
        "meta_mean_anomaly": 133.4881,
        "meta_ephemeris_type": 0,
        "meta_classification_type": "U",
        "meta_norad_cat_id": 38797,
        "meta_element_set_no": 999,
        "meta_rev_at_epoch": 59265,
        "meta_bstar": 0.00041911499,
        "meta_mean_motion_dot": 3.48e-06,
        "meta_mean_motion_ddot": 0,
        "tle_line1": "1 38797U 99025EUM 25345.44898930  .00000348  00000+0  41911-3 0  9996",
        "tle_line2": "2 38797  99.4842 238.3367 0244910 224.6313 133.4881 13.61609837592654"
      },
      "geometry": {
        "type": "Point",
        "coordinates": [
          -124.71986116558452,
          22.599698259361944
        ]
      }
    }
  ]
}